OBJECT_NAME,OBJECT_ID,EPOCH,MEAN_MOTION,ECCENTRICITY,INCLINATION,RA_OF_ASC_NODE,ARG_OF_PERICENTER,MEAN_ANOMALY,EPHEMERIS_TYPE,CLASSIFICATION_TYPE,NORAD_CAT_ID,ELEMENT_SET_NO,REV_AT_EPOCH,BSTAR,MEAN_MOTION_DOT,MEAN_MOTION_DDOT
COSMOS 2251 DEB,1993-036BHS,2024-01-23T00:46:23.278368,14.06412624,.0323127,73.7856,145.9066,85.0168,33.6313,0,U,37278,999,69820,.12863E-2,.339E-4,0
COSMOS 2251 DEB,1993-036BHU,2024-01-15T05:19:02.385696,14.11956970,.0148212,74.0338,216.9259,147.1603,213.8856,0,U,37280,999,47451,.24373E-2,.4923E-4,0
COSMOS 2251 DEB,1993-036BHW,2024-01-16T13:50:21.524064,14.88182780,.0054836,73.8800,72.0845,331.8523,27.9694,0,U,37282,999,77128,.55732E-2,.53201E-3,0
COSMOS 2251 DEB,1993-036BHY,2024-01-05T13:52:54.154848,14.05823997,.018489,74.0239,321.6164,272.7432,205.4851,0,U,37284,999,49212,.14309E-2,.2702E-4,0
COSMOS 2251 DEB,1993-036BJG,2024-01-14T02:48:24.460992,13.95347033,.0230575,74.1283,172.1666,352.3971,7.3683,0,U,37292,999,50075,.19966E-2,.3354E-4,0
COSMOS 2251 DEB,1993-036BJH,2024-01-19T23:49:01.006464,14.36199636,.0076129,73.9232,132.1785,191.6517,168.2877,0,U,37293,999,71534,.26079E-2,.7846E-4,0
COSMOS 2251 DEB,1993-036BJJ,2024-01-15T02:49:54.471648,14.83509914,.0025909,74.0575,174.4428,15.2704,344.9250,0,U,37294,999,74502,.58494E-2,.48727E-3,0
COSMOS 2251 DEB,1993-036BJK,2024-01-22T09:17:12.237216,14.57775538,.0050912,74.0084,165.0308,154.1653,206.2071,0,U,37295,999,72217,.12301E-2,.57E-4,0
COSMOS 2251 DEB,1993-036BJM,2023-12-26T17:34:37.771104,14.90576694,.0013754,74.0106,142.7368,94.0437,266.2317,0,U,37297,999,54165,.58107E-2,.57396E-3,0
COSMOS 2251 DEB,1993-036BJV,2024-01-17T00:04:12.157536,14.31458845,.0052656,73.8704,136.4657,236.6552,122.9551,0,U,37305,999,56894,.1425E-2,.3816E-4,0
COSMOS 2251 DEB,1993-036BJW,2024-01-07T19:54:17.252640,14.94010266,.0046787,74.0673,190.9099,25.5675,35.7693,0,U,37306,999,77956,.31884E-2,.3488E-3,0
COSMOS 2251 DEB,1993-036BKC,2024-01-21T17:56:25.302048,14.41751912,.0020891,74.0334,49.7758,317.9672,41.9880,0,U,37312,999,76189,.78726E-3,.255E-4,0
COSMOS 2251 DEB,1993-036BKG,2024-01-16T18:42:37.867680,14.60329995,.0063981,74.0349,303.9779,200.2239,159.6392,0,U,37316,999,75917,.26688E-2,.13272E-3,0
COSMOS 2251 DEB,1993-036BKL,2024-01-04T18:39:29.105280,14.64967264,.0058135,74.0482,154.0931,65.9852,294.7386,0,U,37320,999,76049,.71181E-3,.3878E-4,0
COSMOS 2251 DEB,1993-036BKS,2024-01-17T21:44:05.972352,14.55015482,.0063777,74.0263,218.3332,161.4203,198.9310,0,U,37326,999,75546,.90824E-3,.3993E-4,0
COSMOS 2251 DEB,1993-036BKT,2024-01-22T07:44:37.930272,14.67248632,.0021641,74.0200,253.1397,163.3667,196.8218,0,U,37327,999,75902,.27065E-2,.1531E-3,0
COSMOS 2251 DEB,1993-036BKW,2024-01-22T02:01:53.914656,14.55448584,.0061913,74.0188,169.5370,189.0002,171.0058,0,U,37330,999,76305,.76293E-3,.3375E-4,0
COSMOS 2251 DEB,1993-036BKX,2024-01-21T23:52:25.686336,14.30951742,.0059334,74.0741,247.1841,77.6559,283.1225,0,U,37331,999,74864,.71456E-3,.189E-4,0
COSMOS 2251 DEB,1993-036BLB,2024-01-13T15:53:26.477664,14.75622820,.0033833,73.9922,8.0496,256.4273,103.3131,0,U,37335,999,57671,.91832E-2,.63828E-3,0
COSMOS 2251 DEB,1993-036BLC,2024-01-22T00:47:34.045152,14.32205907,.0029482,74.0411,151.6501,37.5008,322.8192,0,U,37336,999,55229,.13072E-3,.328E-5,0
COSMOS 2251 DEB,1993-036BLD,2024-01-22T21:48:19.154592,14.85056635,.0027733,74.0128,90.9223,16.3277,106.9807,0,U,37337,999,76270,.33898E-2,.29246E-3,0
COSMOS 2251 DEB,1993-036BLG,2024-01-21T21:39:23.148000,14.35414194,.0018691,74.0260,106.7151,7.3404,352.8019,0,U,37340,999,74149,.30316E-3,.846E-5,0
COSMOS 2251 DEB,1993-036BLL,2024-01-17T14:37:26.380704,14.41275170,.0095846,73.9776,358.0273,3.7935,356.3924,0,U,37483,999,55256,.67793E-3,.2287E-4,0
COSMOS 2251 DEB,1993-036BLM,2024-01-22T10:30:53.255232,14.35324082,.0045728,73.8273,57.8602,225.1970,198.4421,0,U,37484,999,55451,.1266E-2,.3646E-4,0
COSMOS 2251 DEB,1993-036BLP,2024-01-11T11:03:04.080096,14.00307728,.0269566,73.7059,289.4865,259.9771,223.7027,0,U,37486,999,53504,.35686E-2,.7211E-4,0
COSMOS 2251 DEB,1993-036BLQ,2024-01-18T04:39:44.563392,14.47419694,.0042201,73.9302,93.2936,76.0077,284.5768,0,U,37487,999,71089,.32359E-2,.11999E-3,0
COSMOS 2251 DEB,1993-036BLU,2024-01-13T15:20:12.802848,13.71447474,.0322878,73.9085,2.5032,128.1391,234.9301,0,U,37491,999,46148,.10464E-2,.1343E-4,0
COSMOS 2251 DEB,1993-036BLV,2024-01-22T22:09:23.541696,15.50075134,.0014531,73.9786,237.2656,170.7079,189.4405,0,U,37492,999,77275,.71188E-2,.423876E-2,0
COSMOS 2251 DEB,1993-036BLY,2024-01-16T00:19:32.514528,15.52488799,.0026279,73.9742,137.2521,33.3482,326.9381,0,U,37495,999,76344,.6089E-2,.39719E-2,0
COSMOS 2251 DEB,1993-036BLZ,2024-01-18T07:31:53.513184,14.61263857,.0119782,73.9682,247.5968,64.7565,296.5959,0,U,37496,999,55773,.19905E-2,.10861E-3,0
COSMOS 2251 DEB,1993-036BMB,2024-01-13T11:27:24.491520,14.45989837,.0018747,74.0413,58.4191,292.7110,67.2066,0,U,37498,999,55214,.14383E-2,.511E-4,0
COSMOS 2251 DEB,1993-036BMC,2024-01-22T07:57:08.297856,14.33148733,.0028061,74.0380,144.9949,29.1480,331.1230,0,U,37499,999,75254,.31414E-3,.84E-5,0
COSMOS 2251 DEB,1993-036BMD,2024-01-22T04:06:24.049152,15.29456202,.0135176,73.9622,312.4723,297.2528,61.4955,0,U,37500,999,79091,.5797E-3,.21918E-3,0
COSMOS 2251 DEB,1993-036BMK,2024-01-01T10:54:15.794208,14.96276271,.00152,74.0439,283.9196,143.8793,216.3422,0,U,37506,999,55588,.61297E-2,.70079E-3,0
COSMOS 2251 DEB,1993-036BMP,2024-01-03T19:35:15.083520,14.91212809,.0034306,74.0078,50.0675,344.8232,15.1917,0,U,37510,999,56280,.29352E-2,.29596E-3,0
COSMOS 2251 DEB,1993-036BMU,2024-01-22T09:35:27.123936,14.54791858,.0072065,74.1445,171.4209,245.0249,114.3417,0,U,37515,999,75537,.5233E-2,.23279E-3,0
COSMOS 2251 DEB,1993-036BMX,2024-01-08T01:41:36.097152,14.63396123,.0029808,74.0020,258.5791,213.0611,146.8694,0,U,37518,999,55483,.13656E-2,.7083E-4,0
COSMOS 2251 DEB,1993-036BNG,2024-01-09T17:00:06.104736,15.19471427,.0021683,73.9914,20.0982,328.8957,31.0954,0,U,37527,999,76905,.5593E-2,.121353E-2,0
COSMOS 2251 DEB,1993-036BNH,2024-01-20T06:59:17.258208,14.46302432,.0023474,74.0424,339.2789,294.0727,65.7975,0,U,37528,999,75904,.89426E-3,.3191E-4,0
COSMOS 2251 DEB,1993-036BNJ,2024-01-22T12:05:57.795360,14.78675197,.003684,74.0148,203.6631,99.4514,261.0829,0,U,37529,999,56088,.39291E-2,.2923E-3,0
COSMOS 2251 DEB,1993-036BNK,2024-01-15T03:06:08.078688,14.32841095,.002703,74.0352,169.6547,42.3149,77.4438,0,U,37530,999,75234,.45967E-3,.1233E-4,0
COSMOS 2251 DEB,1993-036BNM,2024-01-18T10:52:47.178912,14.40227491,.0016881,74.0511,60.3397,331.3313,92.0138,0,U,37532,999,74912,.437E-3,.1359E-4,0
COSMOS 2251 DEB,1993-036BNN,2024-01-21T12:18:05.194368,14.05478242,.0175478,74.0663,324.3805,188.4781,171.3384,0,U,37533,999,53185,.15822E-2,.2927E-4,0
COSMOS 2251 DEB,1993-036BNQ,2024-01-23T03:27:08.080992,14.50545821,.0033907,74.0284,299.1971,243.9761,183.8822,0,U,37535,999,75297,.10469E-2,.4106E-4,0
COSMOS 2251 DEB,1993-036BNS,2024-01-21T13:21:16.328736,14.35744628,.0052018,74.0126,97.3534,41.1579,319.3478,0,U,37537,999,75107,.33871E-3,.968E-5,0
COSMOS 2251 DEB,1993-036BNT,2024-01-21T17:44:55.722048,14.74443079,.0033448,74.0155,143.4575,72.0995,288.3821,0,U,37538,999,72959,.34015E-2,.22839E-3,0
COSMOS 2251 DEB,1993-036BPB,2024-01-21T08:08:28.109472,14.54908344,.0015855,74.0345,353.1950,223.9942,135.9960,0,U,37546,999,55748,.28026E-2,.1206E-3,0
COSMOS 2251 DEB,1993-036BPC,2024-01-22T13:56:52.967040,14.80177399,.0021899,74.0306,116.5192,51.1167,309.1958,0,U,37547,999,56264,.37292E-2,.28536E-3,0
COSMOS 2251 DEB,1993-036BPF,2024-01-22T17:34:08.369184,14.97173962,.0036383,74.0316,40.3038,306.1772,53.6049,0,U,37956,999,69933,.50341E-2,.59446E-3,0
COSMOS 2251 DEB,1993-036BPJ,2024-01-20T17:22:06.113568,14.50620844,.0067521,74.0141,288.1282,237.6759,151.7888,0,U,37959,999,70137,.9988E-3,.4008E-4,0
COSMOS 2251 DEB,1993-036BPK,2024-01-22T11:26:56.957568,14.03351930,.0261929,74.0602,312.5070,135.9869,226.2453,0,U,37960,999,67706,.65035E-3,.1355E-4,0
COSMOS 2251 DEB,1993-036BPL,2024-01-22T14:25:50.725920,14.48565173,.0051973,74.0467,359.8918,253.8719,105.6716,0,U,37961,999,70038,.16551E-2,.6304E-4,0
COSMOS 2251 DEB,1993-036BPR,2024-01-04T05:31:27.162336,14.66449547,.0020123,73.9968,202.0494,232.4328,127.5014,0,U,37966,999,74824,.14084E-2,.7797E-4,0
COSMOS 2251 DEB,1993-036BPS,2024-01-22T05:41:23.642880,14.29073497,.0180045,74.0216,325.3164,267.6030,90.4496,0,U,37967,999,54830,.24428E-2,.7349E-4,0
COSMOS 2251 DEB,1993-036BPT,2024-01-19T22:05:50.696160,14.81722863,.0115298,73.9936,222.6979,157.5127,203.1164,0,U,37968,999,76203,.10791E-2,.9523E-4,0
COSMOS 2251 DEB,1993-036BPW,2024-01-15T23:38:50.094528,14.34659593,.008856,73.9948,256.5861,194.5431,165.3172,0,U,37971,999,73952,.17907E-2,.5272E-4,0
COSMOS 2251 DEB,1993-036BQA,2024-01-21T20:31:18.879168,14.44466891,.0154334,74.0124,204.0933,5.3323,354.9431,0,U,37975,999,76163,.2049E-2,.8162E-4,0
COSMOS 2251 DEB,1993-036BQC,2024-01-20T06:28:12.533664,14.62630961,.0032472,73.9801,357.2023,277.9321,81.8161,0,U,37977,999,55534,.52875E-2,.27167E-3,0
COSMOS 2251 DEB,1993-036BQD,2024-01-13T20:36:18.511776,14.77840149,.0073356,74.0679,79.8121,285.9507,73.3594,0,U,37978,999,56355,.23373E-2,.17584E-3,0
COSMOS 2251 DEB,1993-036BQL,2024-01-22T12:39:00.809280,14.35070105,.0021216,74.0252,92.2190,20.5198,339.6801,0,U,37985,999,55014,.88186E-4,.226E-5,0
COSMOS 2251 DEB,1993-036BQP,2024-01-21T02:30:59.107392,14.56675911,.0080484,74.0676,268.0321,130.1444,230.6808,0,U,37988,999,14004,.12325E-2,.5726E-4,0
COSMOS 2251 DEB,1993-036BQV,2024-01-22T15:19:33.967776,14.36888649,.0024687,74.0373,107.4347,355.2977,4.7940,0,U,37994,999,67142,.55563E-3,.1623E-4,0
COSMOS 2251 DEB,1993-036BQX,2024-01-22T05:59:31.309152,13.91225034,.0285094,74.0697,319.4040,234.9812,122.4263,0,U,37996,999,46464,.51311E-2,.8978E-4,0
COSMOS 2251 DEB,1993-036BQZ,2024-01-22T19:54:26.433504,14.40605715,.0022746,74.0373,76.4416,317.5247,42.4147,0,U,37998,999,75723,.8218E-3,.2603E-4,0
